[{"OBJECT_NAME":"METOP-C","OBJECT_ID":"2018-087A","EPOCH":"2026-03-09T21:24:06.212448","MEAN_MOTION":14.21497031,"ECCENTRICITY":0.0002203,"INCLINATION":98.6765,"RA_OF_ASC_NODE":130.2612,"ARG_OF_PERICENTER":99.586,"MEAN_ANOMALY":260.5566,"EPHEMERIS_TYPE":0,"CLASSIFICATION_TYPE":"U","NORAD_CAT_ID":43689,"ELEMENT_SET_NO":999,"REV_AT_EPOCH":38072,"BSTAR":8.1967538e-5,"MEAN_MOTION_DOT":1.36e-6,"MEAN_MOTION_DDOT":0},{"OBJECT_NAME":"CZ-6A DEB","OBJECT_ID":"2022-151JX","EPOCH":"2026-03-09T23:22:38.191296","MEAN_MOTION":14.46172417,"ECCENTRICITY":0.01187301,"INCLINATION":98.5295,"RA_OF_ASC_NODE":95.1775,"ARG_OF_PERICENTER":277.96,"MEAN_ANOMALY":80.8132,"EPHEMERIS_TYPE":0,"CLASSIFICATION_TYPE":"U","NORAD_CAT_ID":54519,"ELEMENT_SET_NO":999,"REV_AT_EPOCH":17457,"BSTAR":0.00072632579,"MEAN_MOTION_DOT":2.783e-5,"MEAN_MOTION_DDOT":0}]
